[{"OBJECT_NAME":"IRIDIUM 151","OBJECT_ID":"2017-083E","EPOCH":"2026-04-27T03:46:15.151584","MEAN_MOTION":14.34218107,"ECCENTRICITY":0.0002132,"INCLINATION":86.3985,"RA_OF_ASC_NODE":343.3991,"ARG_OF_PERICENTER":84.5673,"MEAN_ANOMALY":275.5766,"EPHEMERIS_TYPE":0,"CLASSIFICATION_TYPE":"U","NORAD_CAT_ID":43074,"ELEMENT_SET_NO":999,"REV_AT_EPOCH":43682,"BSTAR":2.4992e-5,"MEAN_MOTION_DOT":9.0e-7,"MEAN_MOTION_DDOT":0},{"OBJECT_NAME":"IRIDIUM 134","OBJECT_ID":"2017-083F","EPOCH":"2026-04-27T03:00:35.177760","MEAN_MOTION":14.34218074,"ECCENTRICITY":0.0002276,"INCLINATION":86.3989,"RA_OF_ASC_NODE":343.42,"ARG_OF_PERICENTER":85.8525,"MEAN_ANOMALY":274.2931,"EPHEMERIS_TYPE":0,"CLASSIFICATION_TYPE":"U","NORAD_CAT_ID":43075,"ELEMENT_SET_NO":999,"REV_AT_EPOCH":43678,"BSTAR":3.5764e-5,"MEAN_MOTION_DOT":1.2e-6,"MEAN_MOTION_DDOT":0},{"OBJECT_NAME":"IRIDIUM 137","OBJECT_ID":"2017-083G","EPOCH":"2026-04-27T01:38:23.083008","MEAN_MOTION":14.34218058,"ECCENTRICITY":0.0002088,"INCLINATION":86.3993,"RA_OF_ASC_NODE":343.5354,"ARG_OF_PERICENTER":72.6011,"MEAN_ANOMALY":287.5413,"EPHEMERIS_TYPE":0,"CLASSIFICATION_TYPE":"U","NORAD_CAT_ID":43076,"ELEMENT_SET_NO":999,"REV_AT_EPOCH":43684,"BSTAR":1.3027e-5,"MEAN_MOTION_DOT":5.6e-7,"MEAN_MOTION_DDOT":0},{"OBJECT_NAME":"IRIDIUM 141","OBJECT_ID":"2017-083H","EPOCH":"2026-04-27T03:09:42.945120","MEAN_MOTION":14.34219169,"ECCENTRICITY":0.0002075,"INCLINATION":86.3985,"RA_OF_ASC_NODE":343.3426,"ARG_OF_PERICENTER":87.28,"MEAN_ANOMALY":272.8634,"EPHEMERIS_TYPE":0,"CLASSIFICATION_TYPE":"U","NORAD_CAT_ID":43077,"ELEMENT_SET_NO":999,"REV_AT_EPOCH":43685,"BSTAR":7.1193e-5,"MEAN_MOTION_DOT":2.19e-6,"MEAN_MOTION_DDOT":0},{"OBJECT_NAME":"IRIDIUM 153","OBJECT_ID":"2017-083J","EPOCH":"2026-04-27T02:00:51.388704","MEAN_MOTION":14.34217849,"ECCENTRICITY":0.0002137,"INCLINATION":86.3936,"RA_OF_ASC_NODE":311.8528,"ARG_OF_PERICENTER":94.9777,"MEAN_ANOMALY":265.1662,"EPHEMERIS_TYPE":0,"CLASSIFICATION_TYPE":"U","NORAD_CAT_ID":43078,"ELEMENT_SET_NO":999,"REV_AT_EPOCH":43795,"BSTAR":9.6178e-6,"MEAN_MOTION_DOT":4.7e-7,"MEAN_MOTION_DDOT":0},{"OBJECT_NAME":"IRIDIUM 131","OBJECT_ID":"2017-083K","EPOCH":"2026-04-27T02:51:27.157248","MEAN_MOTION":14.34217805,"ECCENTRICITY":0.0002075,"INCLINATION":86.3992,"RA_OF_ASC_NODE":343.5305,"ARG_OF_PERICENTER":86.0871,"MEAN_ANOMALY":274.0562,"EPHEMERIS_TYPE":0,"CLASSIFICATION_TYPE":"U","NORAD_CAT_ID":43079,"ELEMENT_SET_NO":999,"REV_AT_EPOCH":43678,"BSTAR":1.7997e-5,"MEAN_MOTION_DOT":7.0e-7,"MEAN_MOTION_DDOT":0},{"OBJECT_NAME":"IRIDIUM 144","OBJECT_ID":"2018-030A","EPOCH":"2026-04-27T02:09:59.688288","MEAN_MOTION":14.34217422,"ECCENTRICITY":0.0002225,"INCLINATION":86.3933,"RA_OF_ASC_NODE":311.7805,"ARG_OF_PERICENTER":85.9935,"MEAN_ANOMALY":274.1515,"EPHEMERIS_TYPE":0,"CLASSIFICATION_TYPE":"U","NORAD_CAT_ID":43249,"ELEMENT_SET_NO":999,"REV_AT_EPOCH":42281,"BSTAR":1.7975e-5,"MEAN_MOTION_DOT":7.0e-7,"MEAN_MOTION_DDOT":0},{"OBJECT_NAME":"IRIDIUM 149","OBJECT_ID":"2018-030B","EPOCH":"2026-04-27T02:19:07.663008","MEAN_MOTION":14.34217559,"ECCENTRICITY":0.0002071,"INCLINATION":86.3932,"RA_OF_ASC_NODE":311.7454,"ARG_OF_PERICENTER":90.2928,"MEAN_ANOMALY":269.8505,"EPHEMERIS_TYPE":0,"CLASSIFICATION_TYPE":"U","NORAD_CAT_ID":43250,"ELEMENT_SET_NO":999,"REV_AT_EPOCH":42283,"BSTAR":1.9504e-5,"MEAN_MOTION_DOT":7.4e-7,"MEAN_MOTION_DDOT":0},{"OBJECT_NAME":"IRIDIUM 157","OBJECT_ID":"2018-030C","EPOCH":"2026-04-27T01:06:03.470400","MEAN_MOTION":14.34217892,"ECCENTRICITY":0.0002166,"INCLINATION":86.3935,"RA_OF_ASC_NODE":311.8187,"ARG_OF_PERICENTER":89.2211,"MEAN_ANOMALY":270.9233,"EPHEMERIS_TYPE":0,"CLASSIFICATION_TYPE":"U","NORAD_CAT_ID":43251,"ELEMENT_SET_NO":999,"REV_AT_EPOCH":42280,"BSTAR":1.8542e-5,"MEAN_MOTION_DOT":7.2e-7,"MEAN_MOTION_DDOT":0},{"OBJECT_NAME":"IRIDIUM 140","OBJECT_ID":"2018-030D","EPOCH":"2026-04-27T01:33:27.644256","MEAN_MOTION":14.34217686,"ECCENTRICITY":0.0002222,"INCLINATION":86.3935,"RA_OF_ASC_NODE":311.8234,"ARG_OF_PERICENTER":88.9059,"MEAN_ANOMALY":271.2391,"EPHEMERIS_TYPE":0,"CLASSIFICATION_TYPE":"U","NORAD_CAT_ID":43252,"ELEMENT_SET_NO":999,"REV_AT_EPOCH":42286,"BSTAR":2.0588e-5,"MEAN_MOTION_DOT":7.7e-7,"MEAN_MOTION_DDOT":0},{"OBJECT_NAME":"IRIDIUM 145","OBJECT_ID":"2018-030E","EPOCH":"2026-04-27T01:15:11.504736","MEAN_MOTION":14.34217888,"ECCENTRICITY":0.0002357,"INCLINATION":86.3935,"RA_OF_ASC_NODE":311.8012,"ARG_OF_PERICENTER":82.3446,"MEAN_ANOMALY":277.8018,"EPHEMERIS_TYPE":0,"CLASSIFICATION_TYPE":"U","NORAD_CAT_ID":43253,"ELEMENT_SET_NO":999,"REV_AT_EPOCH":42279,"BSTAR":1.7803e-5,"MEAN_MOTION_DOT":7.0e-7,"MEAN_MOTION_DDOT":0},{"OBJECT_NAME":"IRIDIUM 146","OBJECT_ID":"2018-030F","EPOCH":"2026-04-27T00:47:47.474304","MEAN_MOTION":14.34217924,"ECCENTRICITY":0.0002223,"INCLINATION":86.3934,"RA_OF_ASC_NODE":311.8214,"ARG_OF_PERICENTER":86.4777,"MEAN_ANOMALY":273.6673,"EPHEMERIS_TYPE":0,"CLASSIFICATION_TYPE":"U","NORAD_CAT_ID":43254,"ELEMENT_SET_NO":999,"REV_AT_EPOCH":42280,"BSTAR":1.8564e-5,"MEAN_MOTION_DOT":7.2e-7,"MEAN_MOTION_DDOT":0},{"OBJECT_NAME":"IRIDIUM 148","OBJECT_ID":"2018-030G","EPOCH":"2026-04-27T01:42:36.813024","MEAN_MOTION":14.34215684,"ECCENTRICITY":0.0002085,"INCLINATION":86.3936,"RA_OF_ASC_NODE":311.8479,"ARG_OF_PERICENTER":86.595,"MEAN_ANOMALY":273.5484,"EPHEMERIS_TYPE":0,"CLASSIFICATION_TYPE":"U","NORAD_CAT_ID":43255,"ELEMENT_SET_NO":999,"REV_AT_EPOCH":42284,"BSTAR":1.6975e-5,"MEAN_MOTION_DOT":6.7e-7,"MEAN_MOTION_DDOT":0},{"OBJECT_NAME":"IRIDIUM 142","OBJECT_ID":"2018-030H","EPOCH":"2026-04-27T00:56:56.806368","MEAN_MOTION":14.34215205,"ECCENTRICITY":0.0002286,"INCLINATION":86.3932,"RA_OF_ASC_NODE":311.752,"ARG_OF_PERICENTER":84.3492,"MEAN_ANOMALY":275.7964,"EPHEMERIS_TYPE":0,"CLASSIFICATION_TYPE":"U","NORAD_CAT_ID":43256,"ELEMENT_SET_NO":999,"REV_AT_EPOCH":42280,"BSTAR":1.6172e-5,"MEAN_MOTION_DOT":6.5e-7,"MEAN_MOTION_DDOT":0},{"OBJECT_NAME":"IRIDIUM 150","OBJECT_ID":"2018-030J","EPOCH":"2026-04-27T01:51:43.379424","MEAN_MOTION":14.34217616,"ECCENTRICITY":0.0002083,"INCLINATION":86.3931,"RA_OF_ASC_NODE":311.8506,"ARG_OF_PERICENTER":88.2551,"MEAN_ANOMALY":271.8884,"EPHEMERIS_TYPE":0,"CLASSIFICATION_TYPE":"U","NORAD_CAT_ID":43257,"ELEMENT_SET_NO":999,"REV_AT_EPOCH":42283,"BSTAR":-5.0649e-6,"MEAN_MOTION_DOT":6.0e-8,"MEAN_MOTION_DDOT":0},{"OBJECT_NAME":"IRIDIUM 143","OBJECT_ID":"2018-030K","EPOCH":"2026-04-27T01:24:19.419840","MEAN_MOTION":14.3421781,"ECCENTRICITY":0.0002253,"INCLINATION":86.3939,"RA_OF_ASC_NODE":311.9493,"ARG_OF_PERICENTER":86.3097,"MEAN_ANOMALY":273.8356,"EPHEMERIS_TYPE":0,"CLASSIFICATION_TYPE":"U","NORAD_CAT_ID":43258,"ELEMENT_SET_NO":999,"REV_AT_EPOCH":42276,"BSTAR":4.3942e-6,"MEAN_MOTION_DOT":3.2e-7,"MEAN_MOTION_DDOT":0},{"OBJECT_NAME":"IRIDIUM 161","OBJECT_ID":"2018-047C","EPOCH":"2026-04-27T05:03:35.212608","MEAN_MOTION":14.432817,"ECCENTRICITY":0.000203,"INCLINATION":86.4446,"RA_OF_ASC_NODE":109.7898,"ARG_OF_PERICENTER":91.3159,"MEAN_ANOMALY":268.8274,"EPHEMERIS_TYPE":0,"CLASSIFICATION_TYPE":"U","NORAD_CAT_ID":43478,"ELEMENT_SET_NO":999,"REV_AT_EPOCH":41778,"BSTAR":5.3867e-5,"MEAN_MOTION_DOT":2.01e-6,"MEAN_MOTION_DDOT":0}]
