IRIDIUM 151             
1 43074U 17083E   26117.15711981  .00000090  00000+0  24992-4 0  9995
2 43074  86.3985 343.3991 0002132  84.5673 275.5766 14.34218107436824
IRIDIUM 134             
1 43075U 17083F   26117.12540715  .00000120  00000+0  35764-4 0  9991
2 43075  86.3989 343.4200 0002276  85.8525 274.2931 14.34218074436780
IRIDIUM 137             
1 43076U 17083G   26117.06832272  .00000056  00000+0  13027-4 0  9993
2 43076  86.3993 343.5354 0002088  72.6011 287.5413 14.34218058436843
IRIDIUM 141             
1 43077U 17083H   26117.13174705  .00000219  00000+0  71193-4 0  9991
2 43077  86.3985 343.3426 0002075  87.2800 272.8634 14.34219169436854
IRIDIUM 153             
1 43078U 17083J   26117.08392811  .00000047  00000+0  96178-5 0  9996
2 43078  86.3936 311.8528 0002137  94.9777 265.1662 14.34217849437952
IRIDIUM 131             
1 43079U 17083K   26117.11906432  .00000070  00000+0  17997-4 0  9998
2 43079  86.3992 343.5305 0002075  86.0871 274.0562 14.34217805436788
IRIDIUM 144             
1 43249U 18030A   26117.09027417  .00000070  00000+0  17975-4 0  9990
2 43249  86.3933 311.7805 0002225  85.9935 274.1515 14.34217422422813
IRIDIUM 149             
1 43250U 18030B   26117.09661647  .00000074  00000+0  19504-4 0  9995
2 43250  86.3932 311.7454 0002071  90.2928 269.8505 14.34217559422837
IRIDIUM 157             
1 43251U 18030C   26117.04587350  .00000072  00000+0  18542-4 0  9998
2 43251  86.3935 311.8187 0002166  89.2211 270.9233 14.34217892422801
IRIDIUM 140             
1 43252U 18030D   26117.06490329  .00000077  00000+0  20588-4 0  9998
2 43252  86.3935 311.8234 0002222  88.9059 271.2391 14.34217686422860
IRIDIUM 145             
1 43253U 18030E   26117.05221649  .00000070  00000+0  17803-4 0  9994
2 43253  86.3935 311.8012 0002357  82.3446 277.8018 14.34217888422796
IRIDIUM 146             
1 43254U 18030F   26117.03318836  .00000072  00000+0  18564-4 0  9995
2 43254  86.3934 311.8214 0002223  86.4777 273.6673 14.34217924422808
IRIDIUM 148             
1 43255U 18030G   26117.07125941  .00000067  00000+0  16975-4 0  9991
2 43255  86.3936 311.8479 0002085  86.5950 273.5484 14.34215684422848
IRIDIUM 142             
1 43256U 18030H   26117.03954637  .00000065  00000+0  16172-4 0  9997
2 43256  86.3932 311.7520 0002286  84.3492 275.7964 14.34215205422803
IRIDIUM 150             
1 43257U 18030J   26117.07758541  .00000006  00000+0 -50649-5 0  9992
2 43257  86.3931 311.8506 0002083  88.2551 271.8884 14.34217616422831
IRIDIUM 143             
1 43258U 18030K   26117.05855810  .00000032  00000+0  43942-5 0  9994
2 43258  86.3939 311.9493 0002253  86.3097 273.8356 14.34217810422763
IRIDIUM 161             
1 43478U 18047C   26117.21082422  .00000201  00000+0  53867-4 0  9999
2 43478  86.4446 109.7898 0002030  91.3159 268.8274 14.43281700417789
